{
  "type": "FeatureCollection",
  "features": [
    {
      "type": "Feature",
      "properties": {"road_id": "r1", "road_type": "primary"},
      "geometry": {"type": "LineString", "coordinates": [[78.40, 17.40], [78.41, 17.40]]}
    },
    {
      "type": "Feature",
      "properties": {"road_id": "r2", "road_type": "primary"},
      "geometry": {"type": "LineString", "coordinates": [[78.41, 17.40], [78.42, 17.40]]}
    },
    {
      "type": "Feature",
      "properties": {"road_id": "r3", "road_type": "secondary"},
      "geometry": {"type": "LineString", "coordinates": [[78.40, 17.40], [78.40, 17.41]]}
    },
    {
      "type": "Feature",
      "properties": {"road_id": "r4", "road_type": "secondary"},
      "geometry": {"type": "LineString", "coordinates": [[78.41, 17.40], [78.41, 17.41]]}
    },
    {
      "type": "Feature",
      "properties": {"road_id": "r5", "road_type": "secondary"},
      "geometry": {"type": "LineString", "coordinates": [[78.42, 17.40], [78.42, 17.41]]}
    },
    {
      "type": "Feature",
      "properties": {"road_id": "r6", "road_type": "primary"},
      "geometry": {"type": "LineString", "coordinates": [[78.40, 17.41], [78.41, 17.41]]}
    },
    {
      "type": "Feature",
      "properties": {"road_id": "r7", "road_type": "primary"},
      "geometry": {"type": "LineString", "coordinates": [[78.41, 17.41], [78.42, 17.41]]}
    }
  ]
}
